STARLINK-37655          
1 69142U 26110U   26154.83463783  .00205068  00000+0  10432-2 0  9994
2 69142  97.2832 350.9961 0001306  63.5810 296.5592 15.80881699  3535
STARLINK-37636          
1 69143U 26110V   26154.83388465  .00218346  00000+0  11082-2 0  9993
2 69143  97.2835 350.9975 0001126  91.7065 268.4332 15.80898825  3538
STARLINK-37638          
1 69144U 26110W   26154.83313359  .00153237  00000+0  78444-3 0  9997
2 69144  97.2836 350.9988 0001420  96.7596 263.3834 15.80881029  3534
STARLINK-37657          
1 69145U 26110X   26154.89589760 -.00645550  00000+0 -38311-2 0  9999
2 69145  97.2835 351.0658 0000873 348.2558  11.8690 15.79611129  3541
STARLINK-37639          
1 69146U 26110Y   26154.83162885  .00179893  00000+0  91768-3 0  9995
2 69146  97.2836 351.0014 0001024 101.3625 258.7759 15.80887374  3537
STARLINK-37661          
1 69147U 26110Z   26154.91668981 -.02471857  00000+0 -18733-1 0  9991
2 69147  97.2846 351.0855 0001929  76.7337  39.3550 15.75906544  3572
STARLINK-37395          
1 69148U 26111A   26154.91668981  .00118974  00000+0  59992-3 0  9991
2 69148  53.1585 218.1678 0001141 101.2496 176.7453 15.80804975  3418
STARLINK-37346          
1 69149U 26111B   26154.91668981  .00054648  00000+0  27902-3 0  9995
2 69149  53.1585 218.1558 0001247  91.3653 192.5550 15.80844844  3410
STARLINK-37332          
1 69150U 26111C   26154.91668981  .00076151  00000+0  38643-3 0  9994
2 69150  53.1586 218.1391 0001389  85.6307 206.0478 15.80846086  3417
STARLINK-37297          
1 69151U 26111D   26154.91668981  .00088256  00000+0  44722-3 0  9999
2 69151  53.1586 218.1529 0001206  69.9886 215.1817 15.80819803  3411
STARLINK-37317          
1 69152U 26111E   26154.91668981  .00066596  00000+0  33883-3 0  9999
2 69152  53.1584 218.1300 0001255  76.4043 219.9234 15.80841540  3417
STARLINK-37374          
1 69153U 26111F   26154.91668981 -.00011152  00000+0 -53041-4 0  9999
2 69153  53.1585 218.1122 0001181  84.4604 220.1108 15.80869007  3413
STARLINK-37235          
1 69154U 26111G   26154.91668981  .00070260  00000+0  35745-3 0  9993
2 69154  53.1589 218.1196 0001273  96.2368 204.7389 15.80822414  3419
STARLINK-37329          
1 69155U 26111H   26154.91668981  .00126176  00000+0  63549-3 0  9995
2 69155  53.1588 218.1349 0001261  93.7581 200.0250 15.80804824  3416
STARLINK-37345          
1 69156U 26111J   26154.91668981  .00052175  00000+0  26688-3 0  9996
2 69156  53.1588 218.1178 0001190  90.6792 211.3462 15.80824461  3417
STARLINK-37353          
1 69157U 26111K   26154.91668981  .00091809  00000+0  46474-3 0  9999
2 69157  53.1587 218.1153 0000879  79.1859 224.0582 15.80826924  3419
STARLINK-37363          
1 69158U 26111L   26154.91668981  .00124754  00000+0  62833-3 0  9993
2 69158  53.1586 218.0914 0000861 117.1783 197.8690 15.80809809  3413
STARLINK-37343          
1 69159U 26111M   26154.91668981 -.00010721  00000+0 -50864-4 0  9996
2 69159  53.1589 218.0822 0001035  86.4912 232.8277 15.80865305  3415
STARLINK-37328          
1 69160U 26111N   26154.91668981  .00089696  00000+0  45452-3 0  9999
2 69160  53.1589 218.0890 0001343  75.5217 240.2702 15.80813274  3415
STARLINK-37311          
1 69161U 26111P   26154.91668981  .00107042  00000+0  54117-3 0  9994
2 69161  53.1591 218.0759 0001100  90.9486 231.1023 15.80792356  3415
STARLINK-36286          
1 69162U 26111Q   26154.91668981  .00110697  00000+0  55914-3 0  9991
2 69162  53.1589 218.0675 0000883  95.2212 231.0767 15.80798207  3417
STARLINK-37196          
1 69163U 26111R   26154.91668981 -.02415134  00000+0 -14294-1 0  9994
2 69163  53.1591 218.0465 0000791 109.6694 226.7023 15.80720423  3411
STARLINK-36288          
1 69164U 26111S   26154.91668981  .00003863  00000+0  23126-4 0  9990
2 69164  53.1591 218.0480 0001162  89.8471 245.5427 15.80851187  3413
STARLINK-37445          
1 69165U 26111T   26154.91668981  .00045422  00000+0  23294-3 0  9993
2 69165  53.1591 218.0438 0000980  90.4544 247.2612 15.80828103  3410
STARLINK-37491          
1 69166U 26111U   26154.91668981 -.02134120  00000+0 -12341-1 0  9991
2 69166  53.1591 218.0306 0000733  74.2714 269.5419 15.81361684  3419
STARLINK-37474          
1 69167U 26111V   26154.91668981  .00011759  00000+0  63094-4 0  9994
2 69167  53.1592 218.0109 0000533  82.4282 271.0722 15.80850551  3411
STARLINK-37469          
1 69168U 26111W   26154.91668981 -.00008254  00000+0 -38348-4 0  9997
2 69168  53.1621 218.0018 0000771  68.9430 288.8260 15.80859347  3417
STARLINK-37515          
1 69169U 26111X   26154.91668981 -.00014475  00000+0 -69948-4 0  9990
2 69169  53.1591 217.9930 0000498  83.2076 278.8265 15.80866622  3415
STARLINK-37437          
1 69170U 26111Y   26154.91668981  .00064995  00000+0  33085-3 0  9994
2 69170  53.1590 217.9871 0000973  77.9286 286.8398 15.80840539  3416
STARLINK-37392          
1 69171U 26111Z   26154.91668981 -.00007254  00000+0 -33251-4 0  9998
2 69171  53.1594 217.9392 0000991  87.9473 299.7158 15.80867195  3412
