OBJECT_NAME,OBJECT_ID,EPOCH,MEAN_MOTION,ECCENTRICITY,INCLINATION,RA_OF_ASC_NODE,ARG_OF_PERICENTER,MEAN_ANOMALY,EPHEMERIS_TYPE,CLASSIFICATION_TYPE,NORAD_CAT_ID,ELEMENT_SET_NO,REV_AT_EPOCH,BSTAR,MEAN_MOTION_DOT,MEAN_MOTION_DDOT
STARLINK-37655,2026-110U,2026-06-03T20:01:52.708512,15.80881699,.00013063,97.2832,350.9961,63.5810,296.5592,0,U,69142,999,353,.10432356E-2,.205068E-2,0
STARLINK-37636,2026-110V,2026-06-03T20:00:47.633760,15.80898825,.00011267,97.2835,350.9975,91.7065,268.4332,0,U,69143,999,353,.11081673E-2,.218346E-2,0
STARLINK-37638,2026-110W,2026-06-03T19:59:42.742176,15.80881029,.00014201,97.2836,350.9988,96.7596,263.3834,0,U,69144,999,353,.78443629E-3,.153237E-2,0
STARLINK-37657,2026-110X,2026-06-03T21:30:05.552640,15.79611129,.00008735,97.2835,351.0658,348.2558,11.8690,0,U,69145,999,354,-.38311395E-2,-.64555E-2,0
STARLINK-37639,2026-110Y,2026-06-03T19:57:32.732640,15.80887374,.0001024,97.2836,351.0014,101.3625,258.7759,0,U,69146,999,353,.91768364E-3,.179893E-2,0
STARLINK-37661,2026-110Z,2026-06-03T22:00:01.999584,15.75906544,.00019297,97.2846,351.0855,76.7337,39.3550,0,U,69147,999,357,-.18733174E-1,-.2471857E-1,0
STARLINK-37395,2026-111A,2026-06-03T22:00:01.999584,15.80804975,.00011419,53.1585,218.1678,101.2496,176.7453,0,U,69148,999,341,.59991606E-3,.118974E-2,0
STARLINK-37346,2026-111B,2026-06-03T22:00:01.999584,15.80844844,.00012475,53.1585,218.1558,91.3653,192.5550,0,U,69149,999,341,.27902029E-3,.54648E-3,0
STARLINK-37332,2026-111C,2026-06-03T22:00:01.999584,15.80846086,.00013894,53.1586,218.1391,85.6307,206.0478,0,U,69150,999,341,.38643197E-3,.76151E-3,0
STARLINK-37297,2026-111D,2026-06-03T22:00:01.999584,15.80819803,.00012065,53.1586,218.1529,69.9886,215.1817,0,U,69151,999,341,.44721703E-3,.88256E-3,0
STARLINK-37317,2026-111E,2026-06-03T22:00:01.999584,15.80841540,.00012553,53.1584,218.1300,76.4043,219.9234,0,U,69152,999,341,.33883232E-3,.66596E-3,0
STARLINK-37374,2026-111F,2026-06-03T22:00:01.999584,15.80869007,.00011817,53.1585,218.1122,84.4604,220.1108,0,U,69153,999,341,-.5304103E-4,-.11152E-3,0
STARLINK-37235,2026-111G,2026-06-03T22:00:01.999584,15.80822414,.00012732,53.1589,218.1196,96.2368,204.7389,0,U,69154,999,341,.35744699E-3,.7026E-3,0
STARLINK-37329,2026-111H,2026-06-03T22:00:01.999584,15.80804824,.00012611,53.1588,218.1349,93.7581,200.0250,0,U,69155,999,341,.63549292E-3,.126176E-2,0
STARLINK-37345,2026-111J,2026-06-03T22:00:01.999584,15.80824461,.00011908,53.1588,218.1178,90.6792,211.3462,0,U,69156,999,341,.26687615E-3,.52175E-3,0
STARLINK-37353,2026-111K,2026-06-03T22:00:01.999584,15.80826924,.00008796,53.1587,218.1153,79.1859,224.0582,0,U,69157,999,341,.46474046E-3,.91809E-3,0
STARLINK-37363,2026-111L,2026-06-03T22:00:01.999584,15.80809809,.00008618,53.1586,218.0914,117.1783,197.8690,0,U,69158,999,341,.62833451E-3,.124754E-2,0
STARLINK-37343,2026-111M,2026-06-03T22:00:01.999584,15.80865305,.00010357,53.1589,218.0822,86.4912,232.8277,0,U,69159,999,341,-.50864106E-4,-.10721E-3,0
STARLINK-37328,2026-111N,2026-06-03T22:00:01.999584,15.80813274,.00013438,53.1589,218.0890,75.5217,240.2702,0,U,69160,999,341,.45451605E-3,.89696E-3,0
STARLINK-37311,2026-111P,2026-06-03T22:00:01.999584,15.80792356,.00011004,53.1591,218.0759,90.9486,231.1023,0,U,69161,999,341,.54116502E-3,.107042E-2,0
STARLINK-36286,2026-111Q,2026-06-03T22:00:01.999584,15.80798207,.00008835,53.1589,218.0675,95.2212,231.0767,0,U,69162,999,341,.5591377E-3,.110697E-2,0
STARLINK-37196,2026-111R,2026-06-03T22:00:01.999584,15.80720423,.00007919,53.1591,218.0465,109.6694,226.7023,0,U,69163,999,341,-.14294499E-1,-.2415134E-1,0
STARLINK-36288,2026-111S,2026-06-03T22:00:01.999584,15.80851187,.00011624,53.1591,218.0480,89.8471,245.5427,0,U,69164,999,341,.23126473E-4,.3863E-4,0
STARLINK-37445,2026-111T,2026-06-03T22:00:01.999584,15.80828103,.00009805,53.1591,218.0438,90.4544,247.2612,0,U,69165,999,341,.23293571E-3,.45422E-3,0
STARLINK-37491,2026-111U,2026-06-03T22:00:01.999584,15.81361684,.00007333,53.1591,218.0306,74.2714,269.5419,0,U,69166,999,341,-.1234132E-1,-.213412E-1,0
STARLINK-37474,2026-111V,2026-06-03T22:00:01.999584,15.80850551,.00005335,53.1592,218.0109,82.4282,271.0722,0,U,69167,999,341,.6309439E-4,.11759E-3,0
STARLINK-37469,2026-111W,2026-06-03T22:00:01.999584,15.80859347,.00007717,53.1621,218.0018,68.9430,288.8260,0,U,69168,999,341,-.38348115E-4,-.8254E-4,0
STARLINK-37515,2026-111X,2026-06-03T22:00:01.999584,15.80866622,.00004985,53.1591,217.9930,83.2076,278.8265,0,U,69169,999,341,-.6994818E-4,-.14475E-3,0
STARLINK-37437,2026-111Y,2026-06-03T22:00:01.999584,15.80840539,.00009732,53.1590,217.9871,77.9286,286.8398,0,U,69170,999,341,.33085095E-3,.64995E-3,0
STARLINK-37392,2026-111Z,2026-06-03T22:00:01.999584,15.80867195,.00009911,53.1594,217.9392,87.9473,299.7158,0,U,69171,999,341,-.33251362E-4,-.7254E-4,0
